NORAD_CAT_ID,OBJECT_NAME,OBJECT_TYPE,EPOCH,MEAN_MOTION,ECCENTRICITY,INCLINATION,RA_OF_ASC_NODE,ARG_OF_PERICENTER,MEAN_ANOMALY,BSTAR,MEAN_MOTION_DOT,MEAN_MOTION_DDOT,TLE_LINE0,TLE_LINE1,TLE_LINE2,SEMIMAJOR_AXIS,PERIOD,APOGEE,PERIGEE,DECAYED
53607.0,STARLINK-4591,PAYLOAD,2023-06-02 06:22:27,15.08837471,0.0001334,53.2178,99.6253,99.2232,260.8911,3.5175e-05,2.72e-06,0.0,0 STARLINK-4591,1 53607U 22104V   23153.26559904  .00000272  00000-0  35175-4 0  9990,2 53607  53.2178  99.6253 0001334  99.2232 260.8911 15.08837471 42996,6917.888,95.438,540.676,538.83,0.0
53607.0,STARLINK-4591,PAYLOAD,2023-06-03 03:02:28,15.08841625,0.0001237,53.2181,95.7604,88.5418,271.5716,3.4966e-05,2.69e-06,0.0,0 STARLINK-4591,1 53607U 22104V   23154.12671788  .00000269  00000-0  34966-4 0  9994,2 53607  53.2181  95.7604 0001237  88.5418 271.5716 15.08841625 42433,6917.875,95.437,540.596,538.885,0.0
53607.0,STARLINK-4591,PAYLOAD,2023-06-03 20:31:43,15.0883315,0.0001228,53.2175,92.4904,82.8844,277.2288,-1.6301e-05,-5.47e-06,0.0,0 STARLINK-4591,1 53607U 22104V   23154.85536707 -.00000547  00000-0 -16301-4 0  9999,2 53607  53.2175  92.4904 0001228  82.8844 277.2288 15.08833150 43233,6917.901,95.438,540.616,538.917,0.0
53607.0,STARLINK-4591,PAYLOAD,2023-06-04 02:53:16,15.08834634,0.0001211,53.2182,91.3043,93.6248,266.4882,-1.0679e-05,-4.58e-06,0.0,0 STARLINK-4591,1 53607U 22104V   23155.12032680 -.00000458  00000-0 -10679-4 0  9994,2 53607  53.2182  91.3043 0001211  93.6248 266.4882 15.08834634 42588,6917.897,95.438,540.6,538.924,0.0
53607.0,STARLINK-4591,PAYLOAD,2023-06-04 20:22:30,15.08841602,0.000112,53.2182,88.0311,86.1051,274.0069,7.5892e-06,-1.67e-06,0.0,0 STARLINK-4591,1 53607U 22104V   23155.84896396 -.00000167  00000-0  75892-5 0  9990,2 53607  53.2182  88.0311 0001120  86.1051 274.0069 15.08841602 43381,6917.875,95.437,540.515,538.966,0.0
53607.0,STARLINK-4591,PAYLOAD,2023-06-05 04:19:25,15.08849671,0.0001174,53.2186,86.5455,100.3063,259.8061,0.00010361,1.362e-05,0.0,0 STARLINK-4591,1 53607U 22104V   23156.18015468  .00001362  00000-0  10361-3 0  9996,2 53607  53.2186  86.5455 0001174 100.3063 259.8061 15.08849671 42744,6917.851,95.437,540.528,538.904,0.0
53607.0,STARLINK-4591,PAYLOAD,2023-06-05 12:16:21,15.08839414,0.0001232,53.2186,85.0576,81.1935,278.9197,7.419e-05,8.93e-06,0.0,0 STARLINK-4591,1 53607U 22104V   23156.51136235  .00000893  00000-0  74190-4 0  9998,2 53607  53.2186  85.0576 0001232  81.1935 278.9197 15.08839414 43489,6917.882,95.438,540.599,538.895,0.0
53607.0,STARLINK-4591,PAYLOAD,2023-06-06 00:59:27,15.08832926,0.0001463,53.2196,82.6804,94.4814,265.6345,1.4943e-05,-5e-07,0.0,0 STARLINK-4591,1 53607U 22104V   23157.04129030 -.00000050  00000-0  14943-4 0  9998,2 53607  53.2196  82.6804 0001463  94.4814 265.6345 15.08832926 42877,6917.902,95.438,540.779,538.755,0.0
53607.0,STARLINK-4591,PAYLOAD,2023-06-06 04:10:13,15.08834916,0.000124,53.2189,82.0845,82.123,277.9903,3.3098e-05,2.39e-06,0.0,0 STARLINK-4591,1 53607U 22104V   23157.17376896  .00000239  00000-0  33098-4 0  9996,2 53607  53.2189  82.0845 0001240  82.1230 277.9903 15.08834916 43583,6917.896,95.438,540.619,538.903,0.0
53607.0,STARLINK-4591,PAYLOAD,2023-06-06 18:28:41,15.0884411,0.0001136,53.2191,79.408,75.6661,284.4458,-1.5669e-05,-5.37e-06,0.0,0 STARLINK-4591,1 53607U 22104V   23157.76992581 -.00000537  00000-0 -15669-4 0  9993,2 53607  53.2191  79.4080 0001136  75.6661 284.4458 15.08844110 42984,6917.868,95.437,540.519,538.947,0.0
53607.0,STARLINK-4591,PAYLOAD,2023-06-07 02:25:36,15.08849211,0.0001179,53.2191,77.9215,78.0612,282.0513,3.6823e-05,2.98e-06,0.0,0 STARLINK-4591,1 53607U 22104V   23158.10111989  .00000298  00000-0  36823-4 0  9994,2 53607  53.2191  77.9215 0001179  78.0612 282.0513 15.08849211 43037,6917.852,95.437,540.533,538.902,0.0
53607.0,STARLINK-4591,PAYLOAD,2023-06-07 18:19:29,15.08832265,0.000139,53.2189,74.9502,71.666,288.4483,6.3509e-05,7.23e-06,0.0,0 STARLINK-4591,1 53607U 22104V   23158.76353016  .00000723  00000-0  63509-4 0  9999,2 53607  53.2189  74.9502 0001390  71.6660 288.4483 15.08832265 43135,6917.904,95.438,540.731,538.807,0.0
53607.0,STARLINK-4591,PAYLOAD,2023-06-08 03:51:47,15.08838131,0.0001108,53.2185,73.1623,84.6003,275.5116,3.1635e-05,2.16e-06,0.0,0 STARLINK-4591,1 53607U 22104V   23159.16096821  .00000216  00000-0  31635-4 0  9994,2 53607  53.2185  73.1623 0001108  84.6003 275.5116 15.08838131 43888,6917.886,95.438,540.518,538.985,0.0
53607.0,STARLINK-4591,PAYLOAD,2023-06-08 22:56:24,15.08847735,0.0001127,53.2187,69.5939,90.7726,269.3395,3.725e-05,3.05e-06,0.0,0 STARLINK-4591,1 53607U 22104V   23159.95584179  .00000305  00000-0  37250-4 0  9997,2 53607  53.2187  69.5939 0001127  90.7726 269.3395 15.08847735 43318,6917.857,95.437,540.501,538.942,0.0
53607.0,STARLINK-4591,PAYLOAD,2023-06-09 03:42:33,15.08853169,0.0001389,53.2186,68.7014,97.884,262.231,5.9086e-05,6.53e-06,0.0,0 STARLINK-4591,1 53607U 22104V   23160.15455681  .00000653  00000-0  59086-4 0  9993,2 53607  53.2186  68.7014 0001389  97.8840 262.2310 15.08853169 43347,6917.84,95.437,540.666,538.744,0.0
53607.0,STARLINK-4591,PAYLOAD,2023-06-10 03:33:21,15.08839005,0.0001117,53.2188,64.2425,89.0119,271.1001,6.3237e-05,7.19e-06,0.0,0 STARLINK-4591,1 53607U 22104V   23161.14816764  .00000719  00000-0  63237-4 0  9992,2 53607  53.2188  64.2425 0001117  89.0119 271.1001 15.08839005 43492,6917.883,95.438,540.521,538.976,0.0
53607.0,STARLINK-4591,PAYLOAD,2023-06-11 09:45:41,15.08842876,0.0001164,53.2191,58.5955,104.4186,255.6935,-5.2528e-05,-1.124e-05,0.0,0 STARLINK-4591,1 53607U 22104V   23162.40672910 -.00001124  00000-0 -52528-4 0  9999,2 53607  53.2191  58.5955 0001164 104.4186 255.6935 15.08842876 43682,6917.872,95.437,540.542,538.931,0.0
53607.0,STARLINK-4591,PAYLOAD,2023-06-11 19:18:00,15.08837366,0.0001178,53.2187,56.811,96.4938,263.6188,4.188e-05,3.79e-06,0.0,0 STARLINK-4591,1 53607U 22104V   23162.80417172  .00000379  00000-0  41880-4 0  9998,2 53607  53.2187  56.8110 0001178  96.4938 263.6188 15.08837366 44432,6917.888,95.438,540.568,538.939,0.0
53607.0,STARLINK-4591,PAYLOAD,2023-06-12 09:36:28,15.08839829,0.0001123,53.2188,54.1348,95.8179,264.2941,6.7199e-05,7.82e-06,0.0,0 STARLINK-4591,1 53607U 22104V   23163.40032956  .00000782  00000-0  67199-4 0  9997,2 53607  53.2188  54.1348 0001123  95.8179 264.2941 15.08839829 44527,6917.881,95.438,540.523,538.969,0.0
53607.0,STARLINK-4591,PAYLOAD,2023-06-12 14:22:38,15.0883389,0.0001329,53.2196,53.2441,117.4209,242.6918,3.9e-05,3.33e-06,0.0,0 STARLINK-4591,1 53607U 22104V   23163.59905450  .00000333  00000-0  39000-4 0  9997,2 53607  53.2196  53.2441 0001329 117.4209 242.6918 15.08833890 43865,6917.899,95.438,540.683,538.845,0.0
53607.0,STARLINK-4591,PAYLOAD,2023-06-12 23:54:57,15.08834432,0.0001341,53.2197,51.4619,108.2529,251.8609,-1.7105e-05,-5.6e-06,0.0,0 STARLINK-4591,1 53607U 22104V   23163.99649806 -.00000560  00000-0 -17105-4 0  9997,2 53607  53.2197  51.4619 0001341 108.2529 251.8609 15.08834432 44616,6917.897,95.438,540.69,538.835,0.0
53607.0,STARLINK-4591,PAYLOAD,2023-06-13 18:59:35,15.0883194,0.0001161,53.2186,47.8895,93.5422,266.5703,1.9597e-05,2.4e-07,0.0,0 STARLINK-4591,1 53607U 22104V   23164.79138148  .00000024  00000-0  19597-4 0  9998,2 53607  53.2186  47.8895 0001161  93.5422 266.5703 15.08831940 44739,6917.905,95.438,540.573,538.967,0.0
53607.0,STARLINK-4591,PAYLOAD,2023-06-14 01:21:08,15.08833928,0.0001145,53.2187,46.6994,91.1439,268.9684,-3.5594e-05,-8.54e-06,0.0,0 STARLINK-4591,1 53607U 22104V   23165.05634319 -.00000854  00000-0 -35594-4 0  9997,2 53607  53.2187  46.6994 0001145  91.1439 268.9684 15.08833928 44081,6917.899,95.438,540.556,538.972,0.0
53607.0,STARLINK-4591,PAYLOAD,2023-06-14 15:39:36,15.08831464,0.0001137,53.2192,44.0225,85.0789,275.0333,0.00012596,1.717e-05,0.0,0 STARLINK-4591,1 53607U 22104V   23165.65250173  .00001717  00000-0  12596-3 0  9998,2 53607  53.2192  44.0225 0001137  85.0789 275.0333 15.08831464 44866,6917.906,95.438,540.558,538.985,0.0
53607.0,STARLINK-4591,PAYLOAD,2023-06-15 01:11:54,15.08842172,0.0001144,53.2189,42.2396,77.8686,282.2434,0.00014993,2.099e-05,0.0,0 STARLINK-4591,1 53607U 22104V   23166.04993512  .00002099  00000-0  14993-3 0  9990,2 53607  53.2189  42.2396 0001144  77.8686 282.2434 15.08842172 44235,6917.874,95.437,540.53,538.947,0.0
53607.0,STARLINK-4591,PAYLOAD,2023-06-16 08:59:36,15.08836858,0.0001029,53.2173,36.2935,80.144,279.9668,0.00031217,4.683e-05,0.0,0 STARLINK-4591,1 53607U 22104V   23167.37473245  .00004683  00000-0  31217-3 0  9992,2 53607  53.2173  36.2935 0001029  80.1440 279.9668 15.08836858 44435,6917.89,95.438,540.467,539.043,0.0
53607.0,STARLINK-4591,PAYLOAD,2023-06-16 18:31:55,15.08849015,0.0001185,53.2184,34.5081,90.5179,269.5949,3.7807e-05,3.14e-06,0.0,0 STARLINK-4591,1 53607U 22104V   23167.77216926  .00000314  00000-0  37807-4 0  9996,2 53607  53.2184  34.5081 0001185  90.5179 269.5949 15.08849015 45186,6917.853,95.437,540.538,538.898,0.0
53607.0,STARLINK-4591,PAYLOAD,2023-06-16 21:42:41,15.088537,0.000114,53.2184,33.9123,99.4305,260.6816,6.4111e-05,7.33e-06,0.0,0 STARLINK-4591,1 53607U 22104V   23167.90464422  .00000733  00000-0  64111-4 0  9990,2 53607  53.2184  33.9123 0001140  99.4305 260.6816 15.08853700 44513,6917.839,95.437,540.492,538.915,0.0
53607.0,STARLINK-4591,PAYLOAD,2023-06-17 10:25:47,15.08837325,0.0001166,53.2186,31.5346,90.7651,269.3475,-3.4884e-05,-8.43e-06,0.0,0 STARLINK-4591,1 53607U 22104V   23168.43457684 -.00000843  00000-0 -34884-4 0  9999,2 53607  53.2186  31.5346 0001166  90.7651 269.3475 15.08837325 45289,6917.889,95.438,540.56,538.947,0.0
53607.0,STARLINK-4591,PAYLOAD,2023-06-17 16:47:21,15.08821797,0.0001113,53.2188,30.3457,76.9891,283.1225,-0.00020909,-3.612e-05,0.0,0 STARLINK-4591,1 53607U 22104V   23168.69955367 -.00003612  00000-0 -20909-3 0  9997,2 53607  53.2188  30.3457 0001113  76.9891 283.1225 15.08821797 44636,6917.936,95.439,540.571,539.031,0.0
